NORAD_CAT_ID,OBJECT_NAME,OBJECT_TYPE,EPOCH,MEAN_MOTION,ECCENTRICITY,INCLINATION,RA_OF_ASC_NODE,ARG_OF_PERICENTER,MEAN_ANOMALY,BSTAR,MEAN_MOTION_DOT,MEAN_MOTION_DDOT,TLE_LINE0,TLE_LINE1,TLE_LINE2,SEMIMAJOR_AXIS,PERIOD,APOGEE,PERIGEE,DECAYED
55658.0,STARLINK-5307,PAYLOAD,2024-06-24 19:33:38,14.98334266,0.0003071,70.0008,314.8277,272.8996,87.1812,0.00010509,1.161e-05,0.0,0 STARLINK-5307,1 55658U 23021AG  24176.81502933  .00001161  00000-0  10509-3 0  9995,2 55658  70.0008 314.8277 0003071 272.8996  87.1812 14.98334266 75490,6950.18,96.107,574.179,569.91,0.0
55658.0,STARLINK-5307,PAYLOAD,2024-06-25 13:11:07,14.98331667,0.0002945,70.0011,312.9761,273.9725,86.1098,2.6282e-06,-6.2e-07,0.0,0 STARLINK-5307,1 55658U 23021AG  24177.54939285 -.00000062  00000-0  26282-5 0  9997,2 55658  70.0011 312.9761 0002945 273.9725  86.1098 14.98331667 75309,6950.188,96.107,574.1,570.006,0.0
55658.0,STARLINK-5307,PAYLOAD,2024-06-25 14:47:15,14.98334914,0.0003002,70.0011,312.8076,274.1409,85.9407,-6.9664e-05,-9.24e-06,0.0,0 STARLINK-5307,1 55658U 23021AG  24177.61615248 -.00000924  00000-0 -69664-4 0  9993,2 55658  70.0011 312.8076 0003002 274.1409  85.9407 14.98334914 75617,6950.178,96.107,574.129,569.956,0.0
55658.0,STARLINK-5307,PAYLOAD,2024-06-25 17:59:31,14.98332246,0.0002936,70.0011,312.4712,274.0227,86.0596,8.4626e-06,8e-08,0.0,0 STARLINK-5307,1 55658U 23021AG  24177.74967203  .00000008  00000-0  84626-5 0  9995,2 55658  70.0011 312.4712 0002936 274.0227  86.0596 14.98332246 75631,6950.186,96.107,574.092,570.01,0.0
55658.0,STARLINK-5307,PAYLOAD,2024-06-26 11:37:00,14.98330824,0.0002857,70.0014,310.621,258.5611,101.5227,1.95e-05,1.4e-06,0.0,0 STARLINK-5307,1 55658U 23021AG  24178.48403061  .00000140  00000-0  19500-4 0  9999,2 55658  70.0014 310.6210 0002857 258.5611 101.5227 14.98330824 75749,6950.19,96.107,574.041,570.07,0.0
55658.0,STARLINK-5307,PAYLOAD,2024-06-27 13:15:09,14.98330403,0.0003019,70.0012,307.9289,263.0524,97.0292,2.7358e-05,2.33e-06,0.0,0 STARLINK-5307,1 55658U 23021AG  24179.55219074  .00000233  00000-0  27358-4 0  9990,2 55658  70.0012 307.9289 0003019 263.0524  97.0292 14.98330403 75606,6950.192,96.107,574.155,569.958,0.0
55658.0,STARLINK-5307,PAYLOAD,2024-06-27 18:03:33,14.98331342,0.0003066,70.001,307.4228,267.5142,92.5666,3.7685e-05,3.57e-06,0.0,0 STARLINK-5307,1 55658U 23021AG  24179.75246999  .00000357  00000-0  37685-4 0  9999,2 55658  70.0010 307.4228 0003066 267.5142  92.5666 14.98331342 75933,6950.189,96.107,574.185,569.923,0.0
55658.0,STARLINK-5307,PAYLOAD,2024-06-28 14:53:17,14.98338736,0.0003396,70.0002,305.2334,270.5631,89.5139,0.00013928,1.57e-05,0.0,0 STARLINK-5307,1 55658U 23021AG  24180.62034245  .00001570  00000-0  13928-3 0  9997,2 55658  70.0002 305.2334 0003396 270.5631  89.5139 14.98338736 76061,6950.166,96.106,574.391,569.671,0.0
55658.0,STARLINK-5307,PAYLOAD,2024-06-28 18:05:33,14.98343822,0.0003156,70.0002,304.8959,267.5155,92.5643,0.00019715,2.261e-05,0.0,0 STARLINK-5307,1 55658U 23021AG  24180.75385731  .00002261  00000-0  19715-3 0  9998,2 55658  70.0002 304.8959 0003156 267.5155  92.5643 14.98343822 75784,6950.15,96.106,574.209,569.822,0.0
55658.0,STARLINK-5307,PAYLOAD,2024-06-29 02:06:14,14.98333464,0.0003758,69.9999,304.0541,268.2498,91.8231,7.1018e-05,7.54e-06,0.0,0 STARLINK-5307,1 55658U 23021AG  24181.08766360  .00000754  00000-0  71018-4 0  9996,2 55658  69.9999 304.0541 0003758 268.2498  91.8231 14.98333464 75833,6950.182,96.107,574.659,569.435,0.0
55658.0,STARLINK-5307,PAYLOAD,2024-06-29 13:19:11,14.98326016,0.0003032,70.0006,302.8766,269.6158,90.4654,-5.6122e-06,-1.6e-06,0.0,0 STARLINK-5307,1 55658U 23021AG  24181.55499362 -.00000160  00000-0 -56122-5 0  9996,2 55658  70.0006 302.8766 0003032 269.6158  90.4654 14.98326016 75900,6950.205,96.107,574.178,569.963,0.0
55658.0,STARLINK-5307,PAYLOAD,2024-06-29 14:55:19,14.98326756,0.0003239,70.0005,302.7083,272.4281,87.6507,7.7769e-05,8.35e-06,0.0,0 STARLINK-5307,1 55658U 23021AG  24181.62175090  .00000835  00000-0  77769-4 0  9999,2 55658  70.0005 302.7083 0003239 272.4281  87.6507 14.98326756 76219,6950.203,96.107,574.319,569.817,0.0
55658.0,STARLINK-5307,PAYLOAD,2024-06-29 18:07:35,14.98332052,0.0003163,70.0001,302.3716,270.7821,89.2976,2.1453e-05,1.63e-06,0.0,0 STARLINK-5307,1 55658U 23021AG  24181.75526879  .00000163  00000-0  21453-4 0  9991,2 55658  70.0001 302.3716 0003163 270.7821  89.2976 14.98332052 76237,6950.187,96.107,574.25,569.853,0.0
55658.0,STARLINK-5307,PAYLOAD,2024-06-30 14:57:20,14.98332465,0.0003353,70.0002,300.1835,274.8056,85.272,3.1428e-05,2.82e-06,0.0,0 STARLINK-5307,1 55658U 23021AG  24182.62314869  .00000282  00000-0  31428-4 0  9997,2 55658  70.0002 300.1835 0003353 274.8056  85.2720 14.98332465 76367,6950.185,96.107,574.381,569.72,0.0
55658.0,STARLINK-5307,PAYLOAD,2024-06-30 18:09:36,14.98335117,0.0003229,70.0004,299.8469,273.1237,86.9553,3.4407e-05,3.18e-06,0.0,0 STARLINK-5307,1 55658U 23021AG  24182.75666681  .00000318  00000-0  34407-4 0  9993,2 55658  70.0004 299.8469 0003229 273.1237  86.9553 14.98335117 76089,6950.177,96.107,574.286,569.798,0.0
55658.0,STARLINK-5307,PAYLOAD,2024-07-01 11:47:05,14.98325551,0.0002984,70.0004,297.9954,271.0805,89.0012,0.00012365,1.383e-05,0.0,0 STARLINK-5307,1 55658U 23021AG  24183.49103169  .00001383  00000-0  12365-3 0  9993,2 55658  70.0004 297.9954 0002984 271.0805  89.0012 14.98325551 76199,6950.207,96.107,574.146,569.998,0.0
55658.0,STARLINK-5307,PAYLOAD,2024-07-01 16:35:29,14.98329042,0.0002768,70.0009,297.4917,261.3193,98.7653,0.00015341,1.738e-05,0.0,0 STARLINK-5307,1 55658U 23021AG  24183.69130886  .00001738  00000-0  15341-3 0  9992,2 55658  70.0009 297.4917 0002768 261.3193  98.7653 14.98329042 76524,6950.196,96.107,573.985,570.137,0.0
55658.0,STARLINK-5307,PAYLOAD,2024-07-02 13:25:14,14.98327944,0.0002851,70.0006,295.3035,267.8284,92.2549,2.4305e-05,1.97e-06,0.0,0 STARLINK-5307,1 55658U 23021AG  24184.55919364  .00000197  00000-0  24305-4 0  9993,2 55658  70.0006 295.3035 0002851 267.8284  92.2549 14.98327944 76357,6950.199,96.107,574.046,570.083,0.0
55658.0,STARLINK-5307,PAYLOAD,2024-07-02 18:13:38,14.98327087,0.0002904,70.0009,294.7983,267.945,92.1376,7.914e-05,8.51e-06,0.0,0 STARLINK-5307,1 55658U 23021AG  24184.75947315  .00000851  00000-0  79140-4 0  9996,2 55658  70.0009 294.7983 0002904 267.9450  92.1376 14.98327087 76681,6950.202,96.107,574.085,570.049,0.0
55658.0,STARLINK-5307,PAYLOAD,2024-07-03 13:27:14,14.98334839,0.0002974,70.0004,292.7779,268.6191,91.4628,6.3414e-05,6.64e-06,0.0,0 STARLINK-5307,1 55658U 23021AG  24185.56058785  .00000664  00000-0  63414-4 0  9999,2 55658  70.0004 292.7779 0002974 268.6191  91.4628 14.98334839 76500,6950.178,96.107,574.11,569.976,0.0
55658.0,STARLINK-5307,PAYLOAD,2024-07-03 16:39:30,14.98332782,0.0002926,70.0004,292.4411,264.7976,95.2849,7.0454e-05,7.48e-06,0.0,0 STARLINK-5307,1 55658U 23021AG  24185.69410879  .00000748  00000-0  70454-4 0  9994,2 55658  70.0004 292.4411 0002926 264.7976  95.2849 14.98332782 76822,6950.184,96.107,574.083,570.016,0.0
55658.0,STARLINK-5307,PAYLOAD,2024-07-04 13:29:16,14.98329037,0.000312,69.9996,290.2511,267.9926,92.0875,6.4008e-05,6.71e-06,0.0,0 STARLINK-5307,1 55658U 23021AG  24186.56199114  .00000671  00000-0  64008-4 0  9990,2 55658  69.9996 290.2511 0003120 267.9926  92.0875 14.98329037 76657,6950.196,96.107,574.229,569.892,0.0
55658.0,STARLINK-5307,PAYLOAD,2024-07-04 16:41:32,14.98330911,0.0003109,69.9999,289.9151,267.909,92.1713,9.3973e-05,1.028e-05,0.0,0 STARLINK-5307,1 55658U 23021AG  24186.69550934  .00001028  00000-0  93973-4 0  9995,2 55658  69.9999 289.9151 0003109 267.9090  92.1713 14.98330911 76974,6950.19,96.107,574.216,569.894,0.0
55658.0,STARLINK-5307,PAYLOAD,2024-07-05 13:31:16,14.98335363,0.0003175,70.0,287.7274,269.0912,90.9883,6.4028e-05,6.71e-06,0.0,0 STARLINK-5307,1 55658U 23021AG  24187.56338701  .00000671  00000-0  64028-4 0  9990,2 55658  70.0000 287.7274 0003175 269.0912  90.9883 14.98335363 76803,6950.176,96.107,574.248,569.835,0.0
55658.0,STARLINK-5307,PAYLOAD,2024-07-05 16:43:32,14.98337105,0.0003126,70.0001,287.3907,268.3099,91.7702,9.5038e-05,1.041e-05,0.0,0 STARLINK-5307,1 55658U 23021AG  24187.69690481  .00001041  00000-0  95038-4 0  9997,2 55658  70.0001 287.3907 0003126 268.3099  91.7702 14.98337105 77128,6950.171,96.107,574.209,569.863,0.0
55658.0,STARLINK-5307,PAYLOAD,2024-07-06 13:33:17,14.98330907,0.0003103,70.0002,285.2027,270.6289,89.4515,3.7387e-05,3.53e-06,0.0,0 STARLINK-5307,1 55658U 23021AG  24188.56478934  .00000353  00000-0  37387-4 0  9999,2 55658  70.0002 285.2027 0003103 270.6289  89.4515 14.98330907 76950,6950.19,96.107,574.212,569.898,0.0
55658.0,STARLINK-5307,PAYLOAD,2024-07-06 16:45:33,14.98330534,0.0002991,70.0004,284.8661,268.5112,91.5705,6.2009e-05,6.47e-06,0.0,0 STARLINK-5307,1 55658U 23021AG  24188.69830896  .00000647  00000-0  62009-4 0  9997,2 55658  70.0004 284.8661 0002991 268.5112  91.5705 14.98330534 77273,6950.191,96.107,574.135,569.977,0.0
55658.0,STARLINK-5307,PAYLOAD,2024-07-07 11:59:10,14.98332873,0.0003051,70.0004,282.8464,270.7884,89.2926,3.6877e-05,3.47e-06,0.0,0 STARLINK-5307,1 55658U 23021AG  24189.49942789  .00000347  00000-0  36877-4 0  9992,2 55658  70.0004 282.8464 0003051 270.7884  89.2926 14.98332873 77391,6950.184,96.107,574.17,569.929,0.0
55658.0,STARLINK-5307,PAYLOAD,2024-07-07 15:11:26,14.98334676,0.0003072,70.0002,282.5099,269.9333,90.1474,3.7629e-05,3.56e-06,0.0,0 STARLINK-5307,1 55658U 23021AG  24189.63294635  .00000356  00000-0  37629-4 0  9994,2 55658  70.0002 282.5099 0003072 269.9333  90.1474 14.98334676 77114,6950.178,96.107,574.179,569.908,0.0
55658.0,STARLINK-5307,PAYLOAD,2024-07-08 13:37:19,14.98331614,0.0003123,69.9999,280.1534,267.722,92.3582,3.6393e-05,3.41e-06,0.0,0 STARLINK-5307,1 55658U 23021AG  24190.56758720  .00000341  00000-0  36393-4 0  9999,2 55658  69.9999 280.1534 0003123 267.7220  92.3582 14.98331614 77553,6950.188,96.107,574.223,569.882,0.0
